#dP2022  7  9  6  0  0.00000000      96 __u+U ITR00 EXT  IAC
## 2217 540000.00000000   900.00000000 59769 0.2500000000000
+  114   C06C07C08C09C10C11C12C13C14C16C19C20C21C22C23C24C25
+        C26C27C28C29C30C32C33C34C35C36C37C38C39C41C42C43C44
+        C45C46E01E02E03E04E05E07E08E09E10E11E12E13E14E15E18
+        E19E21E24E25E26E27E30E31E33E34E36G01G02G03G04G05G06
+        G07G08G09G10G11G12G13G14G15G16G17G18G19G20G21G22G23
+        G24G25G26G27G28G29G30G31G32J02R01R02R03R04R05R07R08
+        R09R11R12R13R14R15R17R18R19R20R21R24  0  0  0  0  0
++        11  8 10 10  8  8  7  9  7  0  7  9  8  7  8  8  8
++         9  8  8  9 10  9  9  9  8  9  9  8 11  7  8  8  8
++         9  8  8  7  8  6  7  7  7  7  9  7  8  8  7  7  8
++         8  7  7  7  8  8  7  8  8  7  8  7  8  7  8  7  7
++         7  8  7  7  7  8  8  8  8  7  7  7  7  8  7  8  9
++         6  7  7  7  7  7  7  9  7  9  9  9  9  9  9  9  8
++         9  8 10  8  7  8  8  8  8  7  9  7  0  0  0  0  0
%c M  cc GPS ccc cccc cccc cccc cccc ccccc ccccc ccccc ccccc
%c cc cc ccc ccc cccc cccc cccc cccc ccccc ccccc ccccc ccccc
%f  0.0000000  0.000000000  0.00000000000  0.000000000000000
%f  0.0000000  0.000000000  0.00000000000  0.000000000000000
%i    0    0    0    0      0      0      0      0         0
%i    0    0    0    0      0      0      0      0         0
/* IAC                                ULTRA-RAPID PREDICTION
/* S/V CLOCKS ARE ALIGNED TO GNSS TIME                      
/* G:C1WC2W R:C1PC2P E:C1XC5X C:C2IC6I J:C1CC2S             
/* PCV:IGS14_2215 OL/AL:FES2004  NONE     YN ORB:CoN CLK:CoN
*  2022 07 09 12 30  0.00000000
PC06   -678.635073  34759.885295  24026.264249    357.495763
PC07 -12108.362224  26594.201731 -30396.521363   -406.069448
PC08 -15105.483996  38117.313658   9519.144224    397.156333
PC09   4060.352691  38089.283989  18545.487613   -933.358244
PC10  -5408.778741  26997.108230 -31716.271503    119.973716
PC11  -5752.254049  17106.223136 -21216.572792    463.897305
PC12 -17296.923648   -234.292701 -21873.658866   -581.137578
PC13 -10790.365936  38375.476651  13423.131443     18.990467
PC14 -15592.205356  13886.662143  18563.374644    533.992946
PC16  -2163.177043  33342.681450  26057.924121    142.759935
PC19   4917.256061 -15764.481464 -22467.553608   -172.671156
PC20  22298.829334 -10477.148704 -13059.840632   -964.017186
PC21 -27450.106373  -1522.795089  -4858.387578   -643.593061
PC22 -16076.704784 -12197.775535 -19288.272100   -962.854418
PC23   6543.066813  18644.302072 -19693.901055   -942.903219
PC24 -18211.374513  17539.553785  11784.866319   -968.003162
PC25  -7017.749752  26181.420307  -6596.499114   -710.126705
PC26 -17566.892928    883.274397  21650.700312    712.025647
PC27  20040.862718   9096.962863  17138.594411    751.539717
PC28  16214.166773  22631.595979   1863.732268     87.981383
PC29  -3250.891052 -23087.586308  15323.577620    579.346781
PC30  12616.187906  -9722.531707  22901.833248    500.895301
PC32  27421.073574   1385.128227   4961.598853   -973.126724
PC33  -4970.784636  15830.222514  22444.658512   -124.425286
PC34 -11907.303220  10772.021911 -22840.365986   -362.722932
PC35 -16420.162871 -22532.269568   -736.050714    357.874426
PC36   8003.324071 -26030.945475   6124.609396   -973.753168
PC37  17189.843856    781.449986 -21951.158067   -915.065536
PC38 -18858.004387  37603.922871   1426.316236      8.911649
PC39  -5651.229167  29328.386784  29851.270083     -0.027429
PC41  15584.915378  12421.096005  19581.849289    -66.368593
PC42 -23045.179869  10029.903903  12196.012609   -954.568990
PC43   2480.611252  22881.365031 -15807.473079      1.945069
PC44 -20464.672053  -8452.189624 -16984.462092    718.464208
PC45  -6700.427554 -18357.787685  19936.716116    804.467593
PC46  17728.769247 -18864.548172 -10455.973756   -422.540244
PE01  26321.825127 -10852.120918  -8094.938080   -511.796475
PE02 -26313.588013  10970.594868   7944.323816    310.842903
PE03 -24566.111586    916.286019  16500.305437   -577.199221
PE04   8750.213529 -14677.102014 -24160.392324  -1067.626358
PE05 -26240.971675 -13663.647555  -1027.348816   -164.595285
PE07  12623.218587  20083.844811  17705.595432   -685.919279
PE08  -8463.381077  14675.426939  24277.068731   -560.619822
PE09 -12780.179749 -19950.245956 -17747.904216   -581.566067
PE10    865.454555 -29200.362808   4777.160558   -525.130644
PE11  -5715.012393 -28489.871646  -5629.633969   3071.528535
PE12   7137.386536 -25214.246848  13739.856479    -52.997786
PE13   5303.700805  28708.273302   4893.988933    429.726699
PE14 -28421.224035  -9335.605620 -10778.333006  -1784.172590
PE15  -7133.495983  25134.977131 -13916.589490    734.354372
PE18  20912.838887  12267.854785   3116.213251  -1234.539841
PE19  25648.999011   1210.585882 -14715.514973  -5142.631495
PE21  19920.258028   4279.546782 -21467.953561   -744.891177
PE24   -484.777286 -18576.379455  23036.486909   -715.289489
PE25 -19725.744330  -4525.675569  21610.326660   -580.446350
PE26  14877.929996  14483.731457  21088.971290  -1356.754362
PE27   1725.938061  18019.746600 -23411.293700   -340.780464
PE30 -18093.544441  20803.524752 -10762.123615   -658.193528
PE31  17308.603741 -21041.271652  11580.335183   -499.622984
PE33  15297.106417  -6755.355338  24418.235596   -454.864380
PE34 -15257.796731   6994.645416 -24393.894369   -526.203908
PE36 -14534.442852 -15393.475342 -20691.399735   -399.681929
PG01  13021.903113 -13028.504576  18689.847683    324.869830
PG02 -13890.538304 -10262.312101 -19485.101438   -651.699691
PG03  23256.132250 -12689.545064   -572.407576   -302.436503
PG04  17884.384900  -4083.392089 -19228.840826   -147.971502
PG05 -23181.858184   3082.762565 -12900.281365    -88.500134
PG06  -6501.922655 -23034.111051 -11374.870162    377.582446
PG07   5725.834113 -24719.382508  -6508.389275    319.866837
PG08  22614.470566   2198.893859  13996.195483    -75.481784
PG09   8050.551574 -13109.776399 -21721.023231   -320.781483
PG10    187.766558  16158.948791  21166.573907   -485.487358
PG11 -12745.027614 -12189.125087 -19871.891681    -11.172267
PG12 -24680.643864   9405.826681   1923.366525   -243.709899
PG13 -22453.297720 -12297.997128   7260.256144    345.039702
PG14   1930.072757 -16966.280988  20321.389005   -111.968094
PG15 -22936.583333    267.151941  13225.262765    -46.823785
PG16  20864.493079   3628.378945 -16579.580393   -514.299331
PG17  -7892.357098 -19477.327417  16639.703614    634.800718
PG18  -6198.689841  24809.120537  -6955.525331    118.530648
PG19 -15618.616688 -19730.728884   8599.897485    181.402857
PG20 -16128.224284  -6122.664269 -20131.539569    504.662049
PG21  15393.284965  -2289.738085  22118.169832    161.169120
PG22  17239.414319  19185.111153   7131.765094    289.390461
PG23 -10964.347759  18439.693690  15575.494186    -32.123549
PG24 -14438.516596   8975.540354  20006.626633    201.413831
PG25 -17394.847564  17353.082736 -10015.224766    347.097024
PG26  12962.786721  10170.151526 -20967.144440    217.208869
PG27  23410.222174  12718.144360   2442.028213    220.212348
PG28  -7272.606364 -13509.803944  22181.270414    332.608224
PG29  -8420.759864  12187.720174 -22096.004250   -531.917543
PG30   -971.572937 -26215.944586   3244.239430   -533.577252
PG31   8301.227893  21121.036012 -13543.990063   -185.057717
PG32  11546.932074  19184.166344  14577.733607   -171.749191
PJ02 -36115.369664  21398.269257    207.224672     -1.488975
PR01  21376.311008  -4330.213097 -13213.118973     11.194091
PR02   3645.301840 -10414.811846 -22957.214759    523.636152
PR03 -15040.830384 -10276.928853 -17784.021295     59.891453
PR04 -24953.380579  -4433.583154  -2819.618016    150.001742
PR05 -21172.567922   3759.051926  13715.269554     95.941304
PR07  15739.371440  10177.012760  17365.404956     37.585223
PR08  24995.729817   4356.567631   2811.528992    -66.123540
PR09  -9883.755792  21670.372402  -9216.873606     64.831038
PR11  13539.180206  -1295.906271 -21561.444966     33.802556
PR12  17338.878505 -16706.230064  -8412.549010     19.216983
PR13  10877.506526 -21631.895002   8011.244678    -24.439041
PR14  -2851.765990 -13635.731042  21380.048298     24.943247
PR15 -14103.126950   1944.162459  21191.899845     94.755178
PR17 -11203.833338 -22709.585720  -3254.151249    541.962077
PR18 -13634.264680 -11866.035311 -17970.013377    123.005369
PR19  -9671.676534   3690.007362 -23320.844425   -195.666875
PR20   1142.377098  21019.629947 -14434.014491    -74.252200
PR21  11579.066829  22197.119872   4798.779451   -316.009784
PR24  -1823.668418 -21414.811462  13762.046493    102.680336
EOF
